[{"OBJECT_NAME":"QIANFAN-1","OBJECT_ID":"2024-140A","EPOCH":"2026-03-07T06:33:54.780480","MEAN_MOTION":13.50999867,"ECCENTRICITY":0.00169345,"INCLINATION":88.9712,"RA_OF_ASC_NODE":290.5365,"ARG_OF_PERICENTER":336.607,"MEAN_ANOMALY":23.4308,"EPHEMERIS_TYPE":0,"CLASSIFICATION_TYPE":"U","NORAD_CAT_ID":60379,"ELEMENT_SET_NO":999,"REV_AT_EPOCH":7876,"BSTAR":0.00014353014,"MEAN_MOTION_DOT":1.05e-6,"MEAN_MOTION_DDOT":0},{"OBJECT_NAME":"QIANFAN-2","OBJECT_ID":"2024-140B","EPOCH":"2026-03-07T05:28:37.390656","MEAN_MOTION":13.51003917,"ECCENTRICITY":0.00114768,"INCLINATION":88.9699,"RA_OF_ASC_NODE":290.3688,"ARG_OF_PERICENTER":309.3186,"MEAN_ANOMALY":50.6947,"EPHEMERIS_TYPE":0,"CLASSIFICATION_TYPE":"U","NORAD_CAT_ID":60380,"ELEMENT_SET_NO":999,"REV_AT_EPOCH":7881,"BSTAR":0.00010782019,"MEAN_MOTION_DOT":8.2e-7,"MEAN_MOTION_DDOT":0},{"OBJECT_NAME":"QIANFAN-3","OBJECT_ID":"2024-140C","EPOCH":"2026-03-07T05:40:22.815552","MEAN_MOTION":13.50999909,"ECCENTRICITY":0.00129362,"INCLINATION":88.9691,"RA_OF_ASC_NODE":290.4942,"ARG_OF_PERICENTER":322.369,"MEAN_ANOMALY":37.6555,"EPHEMERIS_TYPE":0,"CLASSIFICATION_TYPE":"U","NORAD_CAT_ID":60381,"ELEMENT_SET_NO":999,"REV_AT_EPOCH":7872,"BSTAR":0.00012723527,"MEAN_MOTION_DOT":9.4e-7,"MEAN_MOTION_DDOT":0},{"OBJECT_NAME":"QIANFAN-4","OBJECT_ID":"2024-140D","EPOCH":"2026-03-07T06:51:37.948032","MEAN_MOTION":13.51000294,"ECCENTRICITY":0.00117748,"INCLINATION":88.9716,"RA_OF_ASC_NODE":290.408,"ARG_OF_PERICENTER":311.8898,"MEAN_ANOMALY":48.1248,"EPHEMERIS_TYPE":0,"CLASSIFICATION_TYPE":"U","NORAD_CAT_ID":60382,"ELEMENT_SET_NO":999,"REV_AT_EPOCH":7885,"BSTAR":0.00012714063,"MEAN_MOTION_DOT":9.4e-7,"MEAN_MOTION_DDOT":0},{"OBJECT_NAME":"QIANFAN-5","OBJECT_ID":"2024-140E","EPOCH":"2026-03-07T06:16:06.763296","MEAN_MOTION":13.51002221,"ECCENTRICITY":0.00145243,"INCLINATION":88.9691,"RA_OF_ASC_NODE":290.5169,"ARG_OF_PERICENTER":333.5273,"MEAN_ANOMALY":26.5135,"EPHEMERIS_TYPE":0,"CLASSIFICATION_TYPE":"U","NORAD_CAT_ID":60383,"ELEMENT_SET_NO":999,"REV_AT_EPOCH":7871,"BSTAR":0.00011424628,"MEAN_MOTION_DOT":8.6e-7,"MEAN_MOTION_DDOT":0},{"OBJECT_NAME":"QIANFAN-6","OBJECT_ID":"2024-140F","EPOCH":"2026-03-07T06:45:44.725824","MEAN_MOTION":13.51002065,"ECCENTRICITY":0.00120285,"INCLINATION":88.9717,"RA_OF_ASC_NODE":290.2836,"ARG_OF_PERICENTER":318.2916,"MEAN_ANOMALY":41.7317,"EPHEMERIS_TYPE":0,"CLASSIFICATION_TYPE":"U","NORAD_CAT_ID":60384,"ELEMENT_SET_NO":999,"REV_AT_EPOCH":7891,"BSTAR":0.00013519286,"MEAN_MOTION_DOT":9.9e-7,"MEAN_MOTION_DDOT":0},{"OBJECT_NAME":"QIANFAN-7","OBJECT_ID":"2024-140G","EPOCH":"2026-03-07T06:27:28.357344","MEAN_MOTION":14.27773589,"ECCENTRICITY":0.00167361,"INCLINATION":88.973,"RA_OF_ASC_NODE":283.7944,"ARG_OF_PERICENTER":118.3237,"MEAN_ANOMALY":241.9648,"EPHEMERIS_TYPE":0,"CLASSIFICATION_TYPE":"U","NORAD_CAT_ID":60385,"ELEMENT_SET_NO":999,"REV_AT_EPOCH":8245,"BSTAR":0.00015426618,"MEAN_MOTION_DOT":3.96e-6,"MEAN_MOTION_DDOT":0},{"OBJECT_NAME":"QIANFAN-8","OBJECT_ID":"2024-140H","EPOCH":"2026-03-07T06:57:34.568352","MEAN_MOTION":13.51003579,"ECCENTRICITY":0.00155342,"INCLINATION":88.9719,"RA_OF_ASC_NODE":290.5216,"ARG_OF_PERICENTER":319.1694,"MEAN_ANOMALY":40.8292,"EPHEMERIS_TYPE":0,"CLASSIFICATION_TYPE":"U","NORAD_CAT_ID":60386,"ELEMENT_SET_NO":999,"REV_AT_EPOCH":7876,"BSTAR":0.00012275675,"MEAN_MOTION_DOT":9.1e-7,"MEAN_MOTION_DDOT":0},{"OBJECT_NAME":"QIANFAN-9","OBJECT_ID":"2024-140J","EPOCH":"2026-03-07T06:22:01.622784","MEAN_MOTION":13.50998337,"ECCENTRICITY":0.00152278,"INCLINATION":88.9717,"RA_OF_ASC_NODE":290.5978,"ARG_OF_PERICENTER":319.0463,"MEAN_ANOMALY":40.9544,"EPHEMERIS_TYPE":0,"CLASSIFICATION_TYPE":"U","NORAD_CAT_ID":60387,"ELEMENT_SET_NO":999,"REV_AT_EPOCH":7874,"BSTAR":0.00012637372,"MEAN_MOTION_DOT":9.4e-7,"MEAN_MOTION_DDOT":0},{"OBJECT_NAME":"QIANFAN-10","OBJECT_ID":"2024-140K","EPOCH":"2026-03-07T06:27:47.280672","MEAN_MOTION":13.50996746,"ECCENTRICITY":0.00131688,"INCLINATION":88.9726,"RA_OF_ASC_NODE":289.9527,"ARG_OF_PERICENTER":294.8578,"MEAN_ANOMALY":65.1203,"EPHEMERIS_TYPE":0,"CLASSIFICATION_TYPE":"U","NORAD_CAT_ID":60388,"ELEMENT_SET_NO":999,"REV_AT_EPOCH":7887,"BSTAR":0.00013161805,"MEAN_MOTION_DOT":9.7e-7,"MEAN_MOTION_DDOT":0},{"OBJECT_NAME":"QIANFAN-11","OBJECT_ID":"2024-140L","EPOCH":"2026-03-07T05:34:39.322848","MEAN_MOTION":13.51003518,"ECCENTRICITY":0.00132491,"INCLINATION":88.9653,"RA_OF_ASC_NODE":290.4807,"ARG_OF_PERICENTER":319.6713,"MEAN_ANOMALY":40.3454,"EPHEMERIS_TYPE":0,"CLASSIFICATION_TYPE":"U","NORAD_CAT_ID":60389,"ELEMENT_SET_NO":999,"REV_AT_EPOCH":7852,"BSTAR":0.0001023914,"MEAN_MOTION_DOT":7.8e-7,"MEAN_MOTION_DDOT":0},{"OBJECT_NAME":"QIANFAN-12","OBJECT_ID":"2024-140M","EPOCH":"2026-03-07T06:04:17.381280","MEAN_MOTION":13.51001227,"ECCENTRICITY":0.00123177,"INCLINATION":88.9696,"RA_OF_ASC_NODE":290.5589,"ARG_OF_PERICENTER":328.9517,"MEAN_ANOMALY":31.0905,"EPHEMERIS_TYPE":0,"CLASSIFICATION_TYPE":"U","NORAD_CAT_ID":60390,"ELEMENT_SET_NO":999,"REV_AT_EPOCH":7865,"BSTAR":0.00010642899,"MEAN_MOTION_DOT":8.1e-7,"MEAN_MOTION_DDOT":0},{"OBJECT_NAME":"QIANFAN-13","OBJECT_ID":"2024-140N","EPOCH":"2026-03-07T05:22:46.519392","MEAN_MOTION":13.5100165,"ECCENTRICITY":0.00122179,"INCLINATION":88.9708,"RA_OF_ASC_NODE":290.6722,"ARG_OF_PERICENTER":332.0045,"MEAN_ANOMALY":28.0447,"EPHEMERIS_TYPE":0,"CLASSIFICATION_TYPE":"U","NORAD_CAT_ID":60391,"ELEMENT_SET_NO":999,"REV_AT_EPOCH":7867,"BSTAR":9.8692981e-5,"MEAN_MOTION_DOT":7.6e-7,"MEAN_MOTION_DDOT":0},{"OBJECT_NAME":"QIANFAN-14","OBJECT_ID":"2024-140P","EPOCH":"2026-03-07T05:58:13.553472","MEAN_MOTION":13.51001564,"ECCENTRICITY":0.00158796,"INCLINATION":88.9687,"RA_OF_ASC_NODE":290.5492,"ARG_OF_PERICENTER":330.028,"MEAN_ANOMALY":29.9961,"EPHEMERIS_TYPE":0,"CLASSIFICATION_TYPE":"U","NORAD_CAT_ID":60392,"ELEMENT_SET_NO":999,"REV_AT_EPOCH":7868,"BSTAR":0.00013437317,"MEAN_MOTION_DOT":9.9e-7,"MEAN_MOTION_DDOT":0},{"OBJECT_NAME":"QIANFAN-15","OBJECT_ID":"2024-140Q","EPOCH":"2026-03-07T06:10:17.459328","MEAN_MOTION":13.50999381,"ECCENTRICITY":0.00112988,"INCLINATION":88.971,"RA_OF_ASC_NODE":290.5249,"ARG_OF_PERICENTER":317.3848,"MEAN_ANOMALY":42.6426,"EPHEMERIS_TYPE":0,"CLASSIFICATION_TYPE":"U","NORAD_CAT_ID":60393,"ELEMENT_SET_NO":999,"REV_AT_EPOCH":7867,"BSTAR":0.00011237704,"MEAN_MOTION_DOT":8.5e-7,"MEAN_MOTION_DDOT":0},{"OBJECT_NAME":"QIANFAN-16","OBJECT_ID":"2024-140R","EPOCH":"2026-03-07T05:52:17.203584","MEAN_MOTION":13.5099807,"ECCENTRICITY":0.00139438,"INCLINATION":88.9714,"RA_OF_ASC_NODE":290.6488,"ARG_OF_PERICENTER":335.0208,"MEAN_ANOMALY":25.0267,"EPHEMERIS_TYPE":0,"CLASSIFICATION_TYPE":"U","NORAD_CAT_ID":60394,"ELEMENT_SET_NO":999,"REV_AT_EPOCH":7858,"BSTAR":0.00014437232,"MEAN_MOTION_DOT":1.05e-6,"MEAN_MOTION_DDOT":0},{"OBJECT_NAME":"QIANFAN-17","OBJECT_ID":"2024-140S","EPOCH":"2026-03-07T05:46:30.345600","MEAN_MOTION":13.51004756,"ECCENTRICITY":0.00141419,"INCLINATION":88.9725,"RA_OF_ASC_NODE":290.7045,"ARG_OF_PERICENTER":328.2137,"MEAN_ANOMALY":31.8159,"EPHEMERIS_TYPE":0,"CLASSIFICATION_TYPE":"U","NORAD_CAT_ID":60395,"ELEMENT_SET_NO":999,"REV_AT_EPOCH":7954,"BSTAR":0.00014153782,"MEAN_MOTION_DOT":1.03e-6,"MEAN_MOTION_DDOT":0}]
