QIANFAN-1               
1 60379U 24140A   26066.27355070  .00000105  00000+0  14353-3 0  9999
2 60379  88.9712 290.5365 0016934 336.6070  23.4308 13.50999867 78765
QIANFAN-2               
1 60380U 24140B   26066.22821054  .00000082  00000+0  10782-3 0  9992
2 60380  88.9699 290.3688 0011476 309.3186  50.6947 13.51003917 78818
QIANFAN-3               
1 60381U 24140C   26066.23637518  .00000094  00000+0  12724-3 0  9995
2 60381  88.9691 290.4942 0012936 322.3690  37.6555 13.50999909 78726
QIANFAN-4               
1 60382U 24140D   26066.28585588  .00000094  00000+0  12714-3 0  9999
2 60382  88.9716 290.4080 0011774 311.8898  48.1248 13.51000294 78851
QIANFAN-5               
1 60383U 24140E   26066.26118939  .00000086  00000+0  11425-3 0  9999
2 60383  88.9691 290.5169 0014524 333.5273  26.5135 13.51002221 78719
QIANFAN-6               
1 60384U 24140F   26066.28176766  .00000099  00000+0  13519-3 0  9994
2 60384  88.9717 290.2836 0012028 318.2916  41.7317 13.51002065 78917
QIANFAN-7               
1 60385U 24140G   26066.26907821  .00000396  00000+0  15427-3 0  9997
2 60385  88.9730 283.7944 0016736 118.3237 241.9648 14.27773589 82450
QIANFAN-8               
1 60386U 24140H   26066.28998343  .00000091  00000+0  12276-3 0  9990
2 60386  88.9719 290.5216 0015534 319.1694  40.8292 13.51003579 78760
QIANFAN-9               
1 60387U 24140J   26066.26529656  .00000094  00000+0  12637-3 0  9990
2 60387  88.9717 290.5978 0015227 319.0463  40.9544 13.50998337 78749
QIANFAN-10              
1 60388U 24140K   26066.26929723  .00000097  00000+0  13162-3 0  9997
2 60388  88.9726 289.9527 0013168 294.8578  65.1203 13.50996746 78878
QIANFAN-11              
1 60389U 24140L   26066.23239957  .00000078  00000+0  10239-3 0  9999
2 60389  88.9653 290.4807 0013249 319.6713  40.3454 13.51003518 78525
QIANFAN-12              
1 60390U 24140M   26066.25297895  .00000081  00000+0  10643-3 0  9991
2 60390  88.9696 290.5589 0012317 328.9517  31.0905 13.51001227 78659
QIANFAN-13              
1 60391U 24140N   26066.22414953  .00000076  00000+0  98693-4 0  9991
2 60391  88.9708 290.6722 0012217 332.0045  28.0447 13.51001650 78674
QIANFAN-14              
1 60392U 24140P   26066.24876798  .00000099  00000+0  13437-3 0  9990
2 60392  88.9687 290.5492 0015879 330.0280  29.9961 13.51001564 78686
QIANFAN-15              
1 60393U 24140Q   26066.25714652  .00000085  00000+0  11238-3 0  9994
2 60393  88.9710 290.5249 0011298 317.3848  42.6426 13.50999381 78672
QIANFAN-16              
1 60394U 24140R   26066.24464356  .00000105  00000+0  14437-3 0  9994
2 60394  88.9714 290.6488 0013943 335.0208  25.0267 13.50998070 78581
QIANFAN-17              
1 60395U 24140S   26066.24062900  .00000103  00000+0  14154-3 0  9998
2 60395  88.9725 290.7045 0014141 328.2137  31.8159 13.51004756 79542
